BEIDOU-3S IGSO-1S       
1 40549U 15019A   26159.86083420 -.00000170  00000+0  00000+0 0  9999
2 40549  49.2128 295.5631 0038580 190.9877 172.7449  1.00252382 40995
NAVSTAR 74 (USA 262)    
1 40730U 15033A   26159.24631573 -.00000032  00000+0  00000+0 0  9994
2 40730  53.9896 267.4554 0115031  30.1898 330.4906  2.00556650 79818
BEIDOU-3S M2S           
1 40748U 15037A   26159.19519395 -.00000056  00000+0  00000+0 0  9994
2 40748  54.8798 302.3557 0007890 262.0571  97.8453  1.86232429 73955
BEIDOU-3S M1S           
1 40749U 15037B   26159.40370012 -.00000057  00000+0  00000+0 0  9991
2 40749  54.8758 302.3365 0003620  60.8584 299.1695  1.86254851 73963
GSAT0205 (GALILEO 9)    
1 40889U 15045A   26144.30399159 -.00000014  00000+0  00000+0 0  9994
2 40889  54.9357 222.4171 0006405 263.0112  96.9692  1.67409242 66562
GSAT0206 (GALILEO 10)   
1 40890U 15045B   26157.31220717  .00000041  00000+0  00000+0 0  9993
2 40890  54.9476 221.9050 0001712 337.7692  22.3083  1.70474019 66851
BEIDOU-3S IGSO-2S       
1 40938U 15053A   26159.75511244 -.00000149  00000+0  00000+0 0  9993
2 40938  49.2356 258.8846 0065097 191.7719 173.9240  1.00261402 39271
NAVSTAR 75 (USA 265)    
1 41019U 15062A   26159.30277548 -.00000065  00000+0  00000+0 0  9998
2 41019  56.9534  31.1536 0111633 231.1432 127.9068  2.00567021 77650
GSAT-15                 
1 41028U 15065A   26159.79003270 -.00000241  00000+0  00000+0 0  9999
2 41028   0.0502 111.6904 0003953 327.3634 196.0460  1.00270840 38711
GSAT0209 (GALILEO 12)   
1 41174U 15079A   26159.23997932  .00000026  00000+0  00000+0 0  9992
2 41174  55.8223 101.5074 0005417 340.0617  19.8913  1.70473803 64622
GSAT0208 (GALILEO 11)   
1 41175U 15079B   26158.28712667  .00000025  00000+0  00000+0 0  9996
2 41175  55.8199 101.5304 0004721 346.6269  13.3344  1.70473630 65023
IRNSS-1E                
1 41241U 16003A   26159.65095014 -.00000296  00000+0  00000+0 0  9991
2 41241  33.2165  59.8739 0017915 179.3895   3.8192  1.00269056 37990
NAVSTAR 76 (USA 266)    
1 41328U 16007A   26158.89450904  .00000008  00000+0  00000+0 0  9999
2 41328  55.5185  89.8281 0096231 247.4008 111.5747  2.00552243 75653
COSMOS 2514 [GLONASS-M] 
1 41330U 16008A   26159.36923639 -.00000030  00000+0  00000+0 0  9992
2 41330  65.0273 313.3092 0010945 197.4687 162.4918  2.13102639 80431
BEIDOU-2 IGSO-6         
1 41434U 16021A   26158.73094119 -.00000150  00000+0  00000+0 0  9997
2 41434  60.2120  38.1351 0057152 231.4838 343.0783  1.00261446 37382
IRNSS-1G                
1 41469U 16027A   26159.79716619 -.00000317  00000+0  00000+0 0  9999
2 41469   5.1775  97.6673 0007493 352.8205 223.2545  1.00270355 37092
GSAT0211 (GALILEO 14)   
1 41549U 16030A   26158.99767406  .00000043  00000+0  00000+0 0  9998
2 41549  55.0982 221.9479 0002777 325.1627  34.9006  1.70473969 62519
GSAT0210 (GALILEO 13)   
1 41550U 16030B   26155.73546720  .00000041  00000+0  00000+0 0  9991
2 41550  55.0978 222.0357 0003015 229.1415 130.9222  1.70474170 62452
BEIDOU-2 G7             
1 41586U 16037A   26159.91218399 -.00000337  00000+0  00000+0 0  9998
2 41586   1.6985  69.2507 0007250   2.6055 264.3649  1.00268906  6806
EUTELSAT 117 WEST B     
1 41589U 16038B   26159.62959534  .00000004  00000+0  00000+0 0  9993
2 41589   0.0210 163.4448 0000220 214.4322 348.7805  1.00272949 36574
GSAT0207 (GALILEO 15)   
1 41859U 16069A   26158.36004664  .00000025  00000+0  00000+0 0  9995
2 41859  55.4931 101.3582 0005449 327.1947  32.7456  1.70473644 59233
GSAT0212 (GALILEO 16)   
1 41860U 16069B   26157.04030880  .00000021  00000+0  00000+0 0  9996
2 41860  55.4899 101.3899 0004681 354.1097   5.8552  1.70473908 59468
GSAT0213 (GALILEO 17)   
1 41861U 16069C   26159.16732243  .00000025  00000+0  00000+0 0  9998
2 41861  55.4929 101.3389 0005118 311.3801  48.5503  1.70474275 59368
GSAT0214 (GALILEO 18)   
1 41862U 16069D   26157.55375951  .00000023  00000+0  00000+0 0  9997
2 41862  55.4911 101.3760 0004310 318.2994  41.6400  1.70473962 59468
SES-15                  
1 42709U 17026A   26159.53201694  .00000076  00000+0  00000+0 0  9992
2 42709   0.0197 332.0701 0000516  88.0806 259.1449  1.00270105  7343
QZS-2 (MICHIBIKI-2)     
1 42738U 17028A   26159.56585652 -.00000150  00000+0  00000+0 0  9992
2 42738  39.4403 243.2817 0760493 269.1680  89.5416  1.00286250  7540
QZS-3 (MICHIBIKI-3)     
1 42917U 17048A   26159.79664619 -.00000332  00000+0  00000+0 0  9991
2 42917   0.0574 182.0267 0002678 265.0011 223.9702  1.00269443 32172
COSMOS 2522 [GLONASS-M] 
1 42939U 17055A   26158.73778968  .00000090  00000+0  00000+0 0  9999
2 42939  64.0781 192.2062 0010649 240.1223 119.8394  2.13102031 67776
QZS-4 (MICHIBIKI-4)     
1 42965U 17062A   26159.36948078 -.00000310  00000+0  00000+0 0  9993
2 42965  40.1136 343.5961 0745005 271.5827 272.2936  1.00253721 31711
BEIDOU-3 M1             
1 43001U 17069A   26156.85695868 -.00000038  00000+0  00000+0 0  9996
2 43001  56.6823  63.4582 0010790 323.7021  36.2527  1.86231597 58395
BEIDOU-3 M2             
1 43002U 17069B   26159.48045273 -.00000043  00000+0  00000+0 0  9994
2 43002  56.6842  63.4073 0009343 348.3819  11.6223  1.86231068 58430
