OBJECT_NAME,OBJECT_ID,EPOCH,MEAN_MOTION,ECCENTRICITY,INCLINATION,RA_OF_ASC_NODE,ARG_OF_PERICENTER,MEAN_ANOMALY,EPHEMERIS_TYPE,CLASSIFICATION_TYPE,NORAD_CAT_ID,ELEMENT_SET_NO,REV_AT_EPOCH,BSTAR,MEAN_MOTION_DOT,MEAN_MOTION_DDOT
BEIDOU-3S IGSO-1S (C31),2015-019A,2026-06-08T20:39:36.074880,1.00252382,.003858,49.2128,295.5631,190.9877,172.7449,0,U,40549,999,4099,0,-.17E-5,0
GPS BIIF-10 (PRN 08),2015-033A,2026-06-08T05:54:41.679072,2.00556650,.0115031,53.9896,267.4554,30.1898,330.4906,0,U,40730,999,7981,0,-.32E-6,0
BEIDOU-3S M2S (C58),2015-037A,2026-06-08T04:41:04.757280,1.86232429,.00078903,54.8798,302.3557,262.0571,97.8453,0,U,40748,999,7395,0,-.56E-6,0
BEIDOU-3S M1S (C57),2015-037B,2026-06-08T09:41:19.690368,1.86254851,.000362,54.8758,302.3365,60.8584,299.1695,0,U,40749,999,7396,0,-.57E-6,0
GSAT0205 (GALILEO 9),2015-045A,2026-05-24T07:17:44.873376,1.67409242,.00064058,54.9357,222.4171,263.0112,96.9692,0,U,40889,999,6656,0,-.14E-6,0
GSAT0206 (GALILEO 10),2015-045B,2026-06-06T07:29:34.699488,1.70474019,.00017129,54.9476,221.9050,337.7692,22.3083,0,U,40890,999,6685,0,.41E-6,0
BEIDOU-3S IGSO-2S (C56),2015-053A,2026-06-08T18:07:21.714816,1.00261402,.0065097,49.2356,258.8846,191.7719,173.9240,0,U,40938,999,3927,0,-.149E-5,0
GPS BIIF-11 (PRN 10),2015-062A,2026-06-08T07:15:59.801472,2.00567021,.01116333,56.9534,31.1536,231.1432,127.9068,0,U,41019,999,7765,0,-.65E-6,0
GSAT-15 (GAGAN/PRN 139),2015-065A,2026-06-08T18:57:38.825280,1.00270840,.0003953,0.0502,111.6904,327.3634,196.0460,0,U,41028,999,3871,0,-.241E-5,0
GSAT0209 (GALILEO 12),2015-079A,2026-06-08T05:45:34.213248,1.70473803,.00054173,55.8223,101.5074,340.0617,19.8913,0,U,41174,999,6462,0,.26E-6,0
GSAT0208 (GALILEO 11),2015-079B,2026-06-07T06:53:27.744288,1.70473630,.00047219,55.8199,101.5304,346.6269,13.3344,0,U,41175,999,6502,0,.25E-6,0
IRNSS-1E,2016-003A,2026-06-08T15:37:22.092096,1.00269056,.0017915,33.2165,59.8739,179.3895,3.8192,0,U,41241,999,3799,0,-.296E-5,0
GPS BIIF-12 (PRN 32),2016-007A,2026-06-07T21:28:05.581056,2.00552243,.0096231,55.5185,89.8281,247.4008,111.5747,0,U,41328,999,7565,0,.8E-7,0
COSMOS 2514 (751),2016-008A,2026-06-08T08:51:42.024096,2.13102639,.00109459,65.0273,313.3092,197.4687,162.4918,0,U,41330,999,8043,0,-.3E-6,0
BEIDOU-2 IGSO-6 (C13),2016-021A,2026-06-07T17:32:33.318816,1.00261446,.00571523,60.2120,38.1351,231.4838,343.0783,0,U,41434,999,3738,0,-.15E-5,0
IRNSS-1G,2016-027A,2026-06-08T19:07:55.158816,1.00270355,.0007493,5.1775,97.6673,352.8205,223.2545,0,U,41469,999,3709,0,-.317E-5,0
GSAT0211 (GALILEO 14),2016-030A,2026-06-07T23:56:39.038784,1.70473969,.0002777,55.0982,221.9479,325.1627,34.9006,0,U,41549,999,6251,0,.43E-6,0
GSAT0210 (GALILEO 13),2016-030B,2026-06-04T17:39:04.366080,1.70474170,.00030152,55.0978,222.0357,229.1415,130.9222,0,U,41550,999,6245,0,.41E-6,0
BEIDOU-2 G7 (C03),2016-037A,2026-06-08T21:53:32.696736,1.00268906,.000725,1.6985,69.2507,2.6055,264.3649,0,U,41586,999,680,0,-.337E-5,0
EUTELSAT 117 WEST B (WAAS/PRN 131),2016-038B,2026-06-08T15:06:37.037376,1.00272949,.000022,0.0210,163.4448,214.4322,348.7805,0,U,41589,999,3657,0,.4E-7,0
GSAT0207 (GALILEO 15),2016-069A,2026-06-07T08:38:28.029696,1.70473644,.0005449,55.4931,101.3582,327.1947,32.7456,0,U,41859,999,5923,0,.25E-6,0
GSAT0212 (GALILEO 16),2016-069B,2026-06-06T00:58:02.680320,1.70473908,.00046811,55.4899,101.3899,354.1097,5.8552,0,U,41860,999,5946,0,.21E-6,0
GSAT0213 (GALILEO 17),2016-069C,2026-06-08T04:00:56.657952,1.70474275,.0005118,55.4929,101.3389,311.3801,48.5503,0,U,41861,999,5936,0,.25E-6,0
GSAT0214 (GALILEO 18),2016-069D,2026-06-06T13:17:24.821664,1.70473962,.00043106,55.4911,101.3760,318.2994,41.6400,0,U,41862,999,5946,0,.23E-6,0
SES-15 (WAAS/PRN 133),2017-026A,2026-06-08T12:46:06.263616,1.00270105,.00005164,0.0197,332.0701,88.0806,259.1449,0,U,42709,999,734,0,.76E-6,0
QZS-2 (QZSS/PRN 194),2017-028A,2026-06-08T13:34:50.003328,1.00286250,.0760493,39.4403,243.2817,269.1680,89.5416,0,U,42738,999,754,0,-.15E-5,0
QZS-3 (QZSS/PRN 199),2017-048A,2026-06-08T19:07:10.230816,1.00269443,.0002678,0.0574,182.0267,265.0011,223.9702,0,U,42917,999,3217,0,-.332E-5,0
COSMOS 2522 (752),2017-055A,2026-06-07T17:42:25.028352,2.13102031,.00106498,64.0781,192.2062,240.1223,119.8394,0,U,42939,999,6777,0,.9E-6,0
QZS-4 (QZSS/PRN 195),2017-062A,2026-06-08T08:52:03.139392,1.00253721,.07450051,40.1136,343.5961,271.5827,272.2936,0,U,42965,999,3171,0,-.31E-5,0
BEIDOU-3 M1 (C19),2017-069A,2026-06-05T20:34:01.229952,1.86231597,.00107903,56.6823,63.4582,323.7021,36.2527,0,U,43001,999,5839,0,-.38E-6,0
BEIDOU-3 M2 (C20),2017-069B,2026-06-08T11:31:51.115872,1.86231068,.0009343,56.6842,63.4073,348.3819,11.6223,0,U,43002,999,5843,0,-.43E-6,0
